{"type": "FeatureCollection", "features": [
{"type": "Feature", "properties": {"provider": "ACTS Community Development Corporation", "borough": "Brooklyn", "address": "2114 Mermaid Avenue, Brooklyn NY 11224"}, "geometry": {"type": "Point", "coordinates": [-73.9847, 40.5761]}},
{"type": "Feature", "properties": {"provider": "American Council of Minority Women Inc", "borough": "Brooklyn", "address": "1090 Coney Island Avenue, Brooklyn NY 11230"}, "geometry": {"type": "Point", "coordinates": [-73.9632, 40.6187]}},
{"type": "Feature", "properties": {"provider": "Arab American Association of New York Inc", "borough": "Brooklyn", "address": "6803 5th Avenue, Brooklyn NY 11220"}, "geometry": {"type": "Point", "coordinates": [-74.0222, 40.6352]}},
{"type": "Feature", "properties": {"provider": "Apna Brooklyn Community Center Inc", "borough": "Brooklyn", "address": "1236 Neptune Avenue, Brooklyn NY 11235"}, "geometry": {"type": "Point", "coordinates": [-73.9642, 40.5777]}},
{"type": "Feature", "properties": {"provider": "Arab-American Family Support Center Inc", "borough": "Brooklyn", "address": "150 Court Street, Brooklyn NY 11201"}, "geometry": {"type": "Point", "coordinates": [-73.9911, 40.6887]}},
{"type": "Feature", "properties": {"provider": "Bay Ridge Community Development Center Inc", "borough": "Brooklyn", "address": "6806 5th Avenue, Brooklyn NY 11220"}, "geometry": {"type": "Point", "coordinates": [-74.0223, 40.6353]}},
{"type": "Feature", "properties": {"provider": "Bensonhurst Council of Jewish Organizations", "borough": "Brooklyn", "address": "8635 21st Avenue, Brooklyn NY 11214"}, "geometry": {"type": "Point", "coordinates": [-73.9962, 40.6042]}},
{"type": "Feature", "properties": {"provider": "Bergen Basin Community Development Corporation", "borough": "Brooklyn", "address": "2331 Bergen Avenue, Brooklyn NY 11234"}, "geometry": {"type": "Point", "coordinates": [-73.9277, 40.6182]}},
{"type": "Feature", "properties": {"provider": "BHRAGS Home Care Corp", "borough": "Brooklyn", "address": "2005 Nostrand Ave, Brooklyn NY 11210"}, "geometry": {"type": "Point", "coordinates": [-73.9462, 40.6262]}},
{"type": "Feature", "properties": {"provider": "Black Veterans for Social Justice Inc", "borough": "Brooklyn", "address": "665 Willoughby Avenue, Brooklyn NY 11206"}, "geometry": {"type": "Point", "coordinates": [-73.9432, 40.6942]}},
{"type": "Feature", "properties": {"provider": "Bnai Raphael Chesed Organization Inc", "borough": "Brooklyn", "address": "3846 Flatlands Ave. Flr 1, Brooklyn NY 11234"}, "geometry": {"type": "Point", "coordinates": [-73.9342, 40.6132]}},
{"type": "Feature", "properties": {"provider": "Boro Park Jewish Community Council", "borough": "Brooklyn", "address": "1310 46th Street, Brooklyn NY 11219"}, "geometry": {"type": "Point", "coordinates": [-73.9882, 40.6362]}},
{"type": "Feature", "properties": {"provider": "Brooklyn Emerge Inc", "borough": "Brooklyn", "address": "1001 Newkirk Ave, Brooklyn NY 11230"}, "geometry": {"type": "Point", "coordinates": [-73.9622, 40.6292]}},
{"type": "Feature", "properties": {"provider": "Camp Friendship Inc", "borough": "Brooklyn", "address": "339 8th Street, Brooklyn NY 11215"}, "geometry": {"type": "Point", "coordinates": [-73.9832, 40.6682]}},
{"type": "Feature", "properties": {"provider": "Campaign Against Hunger Inc", "borough": "Brooklyn", "address": "2010 Fulton Street, Brooklyn NY 11233"}, "geometry": {"type": "Point", "coordinates": [-73.9112, 40.6782]}},
{"type": "Feature", "properties": {"provider": "Center for Family Life in Sunset Park Inc", "borough": "Brooklyn", "address": "443 39th Street, Brooklyn NY 11232"}, "geometry": {"type": "Point", "coordinates": [-74.0072, 40.6522]}},
{"type": "Feature", "properties": {"provider": "Catholic Charities Neighborhood Services Inc", "borough": "Brooklyn", "address": "191 Joralemon Street, Brooklyn NY 11201"}, "geometry": {"type": "Point", "coordinates": [-73.9912, 40.6932]}},
{"type": "Feature", "properties": {"provider": "Chinese American Social Services Center Inc", "borough": "Brooklyn", "address": "124 Avenue O, Brooklyn NY 11204"}, "geometry": {"type": "Point", "coordinates": [-73.9732, 40.6172]}},
{"type": "Feature", "properties": {"provider": "Collective Focus Resource Hub Inc", "borough": "Brooklyn", "address": "1046 Broadway, Brooklyn NY 11221"}, "geometry": {"type": "Point", "coordinates": [-73.9292, 40.6932]}},
{"type": "Feature", "properties": {"provider": "Community Help in Park Slope Inc", "borough": "Brooklyn", "address": "200 Fourth Avenue, Brooklyn NY 11217"}, "geometry": {"type": "Point", "coordinates": [-73.9902, 40.6732]}},
{"type": "Feature", "properties": {"provider": "Cong Chasdei Lev", "borough": "Brooklyn", "address": "1573 39th Street, Brooklyn NY 11218"}, "geometry": {"type": "Point", "coordinates": [-73.9742, 40.6382]}},
{"type": "Feature", "properties": {"provider": "Council of Jewish Organizations of Flatbush Inc", "borough": "Brooklyn", "address": "1523 Avenue M, Brooklyn NY 11230"}, "geometry": {"type": "Point", "coordinates": [-73.9612, 40.6182]}},
{"type": "Feature", "properties": {"provider": "Council of Peoples Organization Inc", "borough": "Brooklyn", "address": "1077 Coney Island Avenue, Brooklyn NY 11230"}, "geometry": {"type": "Point", "coordinates": [-73.9632, 40.6187]}},
{"type": "Feature", "properties": {"provider": "Crown Heights Jewish Community Council Inc", "borough": "Brooklyn", "address": "392 Kingston Ave, Brooklyn NY 11225"}, "geometry": {"type": "Point", "coordinates": [-73.9422, 40.6682]}},
{"type": "Feature", "properties": {"provider": "Crown Heights Youth Collective Inc", "borough": "Brooklyn", "address": "113 Rogers Avenue, Brooklyn NY 11216"}, "geometry": {"type": "Point", "coordinates": [-73.9522, 40.6702]}},
{"type": "Feature", "properties": {"provider": "Elite Learners Inc", "borough": "Brooklyn", "address": "45 Belmont Ave., Brooklyn NY 11212"}, "geometry": {"type": "Point", "coordinates": [-73.9102, 40.6692]}},
{"type": "Feature", "properties": {"provider": "Expecting Relief", "borough": "Brooklyn", "address": "133 Jamaica Ave, Brooklyn NY 11207"}, "geometry": {"type": "Point", "coordinates": [-73.8822, 40.6912]}},
{"type": "Feature", "properties": {"provider": "Family Services Network of New York Inc", "borough": "Brooklyn", "address": "1420 Bushwick Avenue, Brooklyn NY 11207"}, "geometry": {"type": "Point", "coordinates": [-73.9042, 40.6832]}},
{"type": "Feature", "properties": {"provider": "Flatbush Community Fund Inc", "borough": "Brooklyn", "address": "1968 Flatbush Avenue, Brooklyn NY 11220"}, "geometry": {"type": "Point", "coordinates": [-73.9272, 40.6072]}},
{"type": "Feature", "properties": {"provider": "Grandma's Love Inc", "borough": "Brooklyn", "address": "261 68th Street, Brooklyn NY 11220"}, "geometry": {"type": "Point", "coordinates": [-74.0222, 40.6352]}},
{"type": "Feature", "properties": {"provider": "Grant House Unity Corp", "borough": "Brooklyn", "address": "2049 Flatbush Avenue, Brooklyn NY 11234"}, "geometry": {"type": "Point", "coordinates": [-73.9272, 40.6072]}},
{"type": "Feature", "properties": {"provider": "Health Essential Association Inc", "borough": "Brooklyn", "address": "2101 E16th Street 2FL, Brooklyn NY 11229"}, "geometry": {"type": "Point", "coordinates": [-73.9272, 40.6072]}},
{"type": "Feature", "properties": {"provider": "Hebrew Educational Society", "borough": "Brooklyn", "address": "9502 Seaview Avenue, Brooklyn NY 11236"}, "geometry": {"type": "Point", "coordinates": [-73.9002, 40.6152]}},
{"type": "Feature", "properties": {"provider": "Institute for Community Equity and Sharing Inc", "borough": "Brooklyn", "address": "13 Greene Avenue, Brooklyn NY 11238"}, "geometry": {"type": "Point", "coordinates": [-73.9622, 40.6862]}},
{"type": "Feature", "properties": {"provider": "Jewish Community Council of Canarsie Inc", "borough": "Brooklyn", "address": "1170 Pennsylvania Avenue, Brooklyn NY 11239"}, "geometry": {"type": "Point", "coordinates": [-73.8802, 40.6312]}},
{"type": "Feature", "properties": {"provider": "Jewish Community Council of Greater Coney Island Inc", "borough": "Brooklyn", "address": "3001 West 37th Street, Brooklyn NY 11224"}, "geometry": {"type": "Point", "coordinates": [-73.9842, 40.5772]}},
{"type": "Feature", "properties": {"provider": "Kings Bay YM-YWHA Inc", "borough": "Brooklyn", "address": "3495 Nostrand Avenue, Brooklyn NY 11229"}, "geometry": {"type": "Point", "coordinates": [-73.9272, 40.6072]}},
{"type": "Feature", "properties": {"provider": "Life of Hope", "borough": "Brooklyn", "address": "1377 Brooklyn Ave, Brooklyn NY 11203"}, "geometry": {"type": "Point", "coordinates": [-73.9412, 40.6502]}},
{"type": "Feature", "properties": {"provider": "Make the Road New York", "borough": "Brooklyn", "address": "301 Grove St., Brooklyn NY 11237"}, "geometry": {"type": "Point", "coordinates": [-73.9222, 40.7002]}},
{"type": "Feature", "properties": {"provider": "Masbia of Boro Park", "borough": "Brooklyn", "address": "5402 New Utrecht Ave, Brooklyn NY 11219"}, "geometry": {"type": "Point", "coordinates": [-73.9882, 40.6352]}},
{"type": "Feature", "properties": {"provider": "Masbia of Flatbush", "borough": "Brooklyn", "address": "1372 Coney Island, Brooklyn NY 11230"}, "geometry": {"type": "Point", "coordinates": [-73.9632, 40.6187]}},
{"type": "Feature", "properties": {"provider": "Mixteca Organization Inc", "borough": "Brooklyn", "address": "245 23rd Street, Brooklyn NY 11215"}, "geometry": {"type": "Point", "coordinates": [-73.9832, 40.6502]}},
{"type": "Feature", "properties": {"provider": "Muna Social Services Inc", "borough": "Brooklyn", "address": "464 Crescent Street, Brooklyn NY 11208"}, "geometry": {"type": "Point", "coordinates": [-73.8822, 40.6782]}},
{"type": "Feature", "properties": {"provider": "National Committee for the Furtherance of Jewish Education", "borough": "Brooklyn", "address": "824 Eastern Parkway, Brooklyn NY 11213"}, "geometry": {"type": "Point", "coordinates": [-73.9422, 40.6692]}},
{"type": "Feature", "properties": {"provider": "New York United Jewish Association Inc", "borough": "Brooklyn", "address": "2076 Flatbush Avenue, Brooklyn NY 11234"}, "geometry": {"type": "Point", "coordinates": [-73.9272, 40.6072]}},
{"type": "Feature", "properties": {"provider": "Out of the Walls Ministries Inc", "borough": "Brooklyn", "address": "1010 Cleveland Street, Brooklyn NY 11208"}, "geometry": {"type": "Point", "coordinates": [-73.8822, 40.6782]}},
{"type": "Feature", "properties": {"provider": "Pakistani American Youth Organization Inc", "borough": "Brooklyn", "address": "1045 Coney Island Avenue, Brooklyn NY 11230"}, "geometry": {"type": "Point", "coordinates": [-73.9632, 40.6187]}},
{"type": "Feature", "properties": {"provider": "Reaching Out Community Services Inc", "borough": "Brooklyn", "address": "7708 New Utrecht Avenue, Brooklyn NY 11214"}, "geometry": {"type": "Point", "coordinates": [-73.9962, 40.6042]}},
{"type": "Feature", "properties": {"provider": "People In Need Inc", "borough": "Brooklyn", "address": "944 Newkirk Avenue, Brooklyn NY 11230"}, "geometry": {"type": "Point", "coordinates": [-73.9622, 40.6292]}},
{"type": "Feature", "properties": {"provider": "SBH Community Service Network Inc", "borough": "Brooklyn", "address": "425 Kings Hwy, Brooklyn NY 11223"}, "geometry": {"type": "Point", "coordinates": [-73.9732, 40.6042]}},
{"type": "Feature", "properties": {"provider": "Seeds in the Middle", "borough": "Brooklyn", "address": "153 Warren Street, Brooklyn NY 11201"}, "geometry": {"type": "Point", "coordinates": [-73.9912, 40.6932]}},
{"type": "Feature", "properties": {"provider": "Shorefront Jewish Community Council Inc", "borough": "Brooklyn", "address": "128 Brighton Beach Avenue, Brooklyn NY 11235"}, "geometry": {"type": "Point", "coordinates": [-73.9642, 40.5777]}},
{"type": "Feature", "properties": {"provider": "Southside Community Mission Inc", "borough": "Brooklyn", "address": "280 Marcy Avenue, Brooklyn NY 11211"}, "geometry": {"type": "Point", "coordinates": [-73.9572, 40.7082]}},
{"type": "Feature", "properties": {"provider": "Southside United Housing Development Fund Corporation", "borough": "Brooklyn", "address": "434 S 5th St, Brooklyn NY 11211"}, "geometry": {"type": "Point", "coordinates": [-73.9572, 40.7082]}},
{"type": "Feature", "properties": {"provider": "Sri Durga Mandir Multicultural Community Center Inc", "borough": "Brooklyn", "address": "18 Ashford Street, Brooklyn NY 11207"}, "geometry": {"type": "Point", "coordinates": [-73.8822, 40.6782]}},
{"type": "Feature", "properties": {"provider": "St. Patrick's Church", "borough": "Brooklyn", "address": "9511 4th Avenue, Brooklyn NY 11209"}, "geometry": {"type": "Point", "coordinates": [-74.0322, 40.6162]}},
{"type": "Feature", "properties": {"provider": "Trinity Human Services Corporation", "borough": "Brooklyn", "address": "153 A Johnson Avenue, Brooklyn NY 11206"}, "geometry": {"type": "Point", "coordinates": [-73.9432, 40.7062]}},
{"type": "Feature", "properties": {"provider": "United Jewish Organizations of Williamsburg Inc", "borough": "Brooklyn", "address": "32 Penn Street, Brooklyn NY 11249"}, "geometry": {"type": "Point", "coordinates": [-73.9632, 40.7102]}},
{"type": "Feature", "properties": {"provider": "Vinegar Hill Food Pantry", "borough": "Brooklyn", "address": "228 York St., Brooklyn NY 11201"}, "geometry": {"type": "Point", "coordinates": [-73.9782, 40.6992]}}
]}