{
  "type": "FeatureCollection",
  "features": [
    {"type": "Feature", "geometry": {"type": "Point", "coordinates": [-73.945635, 40.7903]}, "properties": {"Borough": "Manhattan", "Market Name": "Harvest Home East Harlem Farmers Market", "Street Address": "E. 104th St. & 3rd Ave."}},
    {"type": "Feature", "geometry": {"type": "Point", "coordinates": [-73.947439, 40.63262]}, "properties": {"Borough": "Brooklyn", "Market Name": "Seeds in the Middle - Flatbush - Hillel Plaza Farm Stand", "Street Address": "Flatbush/Nostrand Triangle"}},
    {"type": "Feature", "geometry": {"type": "Point", "coordinates": [-73.927439, 40.854567]}, "properties": {"Borough": "Bronx", "Market Name": "Morris Heights Farmstand", "Street Address": "University Ave. and W. 179th St."}},
    {"type": "Feature", "geometry": {"type": "Point", "coordinates": [-73.916591, 40.840138]}, "properties": {"Borough": "Bronx", "Market Name": "170 Farm Stand", "Street Address": "1406 Townsend Ave."}},
    {"type": "Feature", "geometry": {"type": "Point", "coordinates": [-73.886562, 40.882647]}, "properties": {"Borough": "Bronx", "Market Name": "JBOLC Garden Community Farmers Market", "Street Address": "Sedgwick Ave. & Goulden Ave."}},
    {"type": "Feature", "geometry": {"type": "Point", "coordinates": [-73.818531, 40.70236]}, "properties": {"Borough": "Queens", "Market Name": "Perez Farm Stand", "Street Address": "134-20 Jamaica Ave."}},
    {"type": "Feature", "geometry": {"type": "Point", "coordinates": [-74.002402, 40.645841]}, "properties": {"Borough": "Brooklyn", "Market Name": "7th Ave Sunset Park Greenmarket", "Street Address": "7th Ave. & 44th St."}},
    {"type": "Feature", "geometry": {"type": "Point", "coordinates": [-74.000253, 40.744349]}, "properties": {"Borough": "Manhattan", "Market Name": "PS 11 Farm Market", "Street Address": "320 W. 21st St."}},
    {"type": "Feature", "geometry": {"type": "Point", "coordinates": [-73.991023, 40.72982]}, "properties": {"Borough": "Manhattan", "Market Name": "Astor Place Greenmarket", "Street Address": "E. 8th St. & Lafayette"}},
    {"type": "Feature", "geometry": {"type": "Point", "coordinates": [-73.896508, 40.675209]}, "properties": {"Borough": "Brooklyn", "Market Name": "Fresh Vibes Market at Emblem Health", "Street Address": "101 Pennsylvania Ave."}},
    {"type": "Feature", "geometry": {"type": "Point", "coordinates": [-73.931151, 40.642031]}, "properties": {"Borough": "Brooklyn", "Market Name": "Seeds in the Middle East Flatbush Farm Stand 2", "Street Address": "4801 Ave. D (PS 208)"}},
    {"type": "Feature", "geometry": {"type": "Point", "coordinates": [-74.010966, 40.716303]}, "properties": {"Borough": "Manhattan", "Market Name": "Tribeca Greenmarket", "Street Address": "Greenwich & Chambers streets"}},
    {"type": "Feature", "geometry": {"type": "Point", "coordinates": [-73.921582, 40.668787]}, "properties": {"Borough": "Brooklyn", "Market Name": "Eastern Parkway Farm Stand", "Street Address": "1420 Eastern Parkway"}},
    {"type": "Feature", "geometry": {"type": "Point", "coordinates": [-73.913698, 40.669234]}, "properties": {"Borough": "Brooklyn", "Market Name": "Brownsville Pitkin Farmstand", "Street Address": "Pitkin Ave. bet Thomas Boyland and Amboy St."}},
    {"type": "Feature", "geometry": {"type": "Point", "coordinates": [-73.906061, 40.772854]}, "properties": {"Borough": "Queens", "Market Name": "Ditmars Park Farmstand", "Street Address": "Steinway St. bet Ditmars Blvd. & 23rd Ave."}},
    {"type": "Feature", "geometry": {"type": "Point", "coordinates": [-73.99552, 40.680761]}, "properties": {"Borough": "Brooklyn", "Market Name": "Carroll Gardens Greenmarket", "Street Address": "Smith & Carroll Sts."}},
    {"type": "Feature", "geometry": {"type": "Point", "coordinates": [-73.942027, 40.842296]}, "properties": {"Borough": "Manhattan", "Market Name": "Fort Washington Greenmarket", "Street Address": "168th St. & Ft. Washington Ave."}},
    {"type": "Feature", "geometry": {"type": "Point", "coordinates": [-73.846937, 40.90152]}, "properties": {"Borough": "Bronx", "Market Name": "Bissel Gardens Farmers Market", "Street Address": "Baychester Ave. & E. 241st St."}},
    {"type": "Feature", "geometry": {"type": "Point", "coordinates": [-73.979629, 40.669218]}, "properties": {"Borough": "Brooklyn", "Market Name": "NYP Youth Market - Brooklyn", "Street Address": "249 7th Ave."}},
    {"type": "Feature", "geometry": {"type": "Point", "coordinates": [-73.735337, 40.717978]}, "properties": {"Borough": "Queens", "Market Name": "QueensVillage Farmers Market", "Street Address": "QueensVillage Long Island Railroad Commuter Parking Lot - Amboy Ln. & Springfield Blvd."}},
    {"type": "Feature", "geometry": {"type": "Point", "coordinates": [-73.951795, 40.81172]}, "properties": {"Borough": "Manhattan", "Market Name": "Uptown Good Food Farm Stand", "Street Address": "330 St. Nicholas Ave."}},
    {"type": "Feature", "geometry": {"type": "Point", "coordinates": [-73.867786, 40.851713]}, "properties": {"Borough": "Bronx", "Market Name": "Bronx Park East Farmers Market", "Street Address": "2222 Bronx Park E."}},
    {"type": "Feature", "geometry": {"type": "Point", "coordinates": [-73.777001, 40.595572]}, "properties": {"Borough": "Queens", "Market Name": "Far Rock Farm Stand", "Street Address": "45-55 Beach Channel Dr."}},
    {"type": "Feature", "geometry": {"type": "Point", "coordinates": [-73.925185, 40.818013]}, "properties": {"Borough": "Bronx", "Market Name": "Lincoln Hospital Greenmarket", "Street Address": "E. 149th St. bet Park & Morris Aves"}},
    {"type": "Feature", "geometry": {"type": "Point", "coordinates": [-73.983534, 40.726054]}, "properties": {"Borough": "Manhattan", "Market Name": "Tompkins Square Greenmarket", "Street Address": "7th St. & Ave. A"}},
    {"type": "Feature", "geometry": {"type": "Point", "coordinates": [-73.956679, 40.666799]}, "properties": {"Borough": "Brooklyn", "Market Name": "Fresh Vibes Market at Medgar Evers College", "Street Address": "1630 Bedford Ave."}},
    {"type": "Feature", "geometry": {"type": "Point", "coordinates": [-73.911812, 40.8139]}, "properties": {"Borough": "Bronx", "Market Name": "Harvest Home St. Mary's Park Farm Stand", "Street Address": "E. 149th St. & Eagle Ave."}},
    {"type": "Feature", "geometry": {"type": "Point", "coordinates": [-74.097966, 40.638936]}, "properties": {"Borough": "Staten Island", "Market Name": "Children's Aid Society Go!Healthy Food Box + Famstand - Goodhue Center", "Street Address": "304 Prospect Ave."}},
    {"type": "Feature", "geometry": {"type": "Point", "coordinates": [-73.925492, 40.821447]}, "properties": {"Borough": "Bronx", "Market Name": "New Roots Farm Stand", "Street Address": "670 Grand Concourse"}}
  ]
}
